NORAD_CAT_ID,OBJECT_NAME,OBJECT_TYPE,EPOCH,MEAN_MOTION,ECCENTRICITY,INCLINATION,RA_OF_ASC_NODE,ARG_OF_PERICENTER,MEAN_ANOMALY,BSTAR,MEAN_MOTION_DOT,MEAN_MOTION_DDOT,TLE_LINE0,TLE_LINE1,TLE_LINE2,SEMIMAJOR_AXIS,PERIOD,APOGEE,PERIGEE,DECAYED
55767.0,STARLINK-5606,PAYLOAD,2024-03-23 20:33:16,14.98323166,0.0002394,70.0021,229.5083,240.9174,119.1745,-3.7644e-05,-5.42e-06,0.0,0 STARLINK-5606,1 55767U 23028AC  24083.85643627 -.00000542  00000-0 -37644-4 0  9994,2 55767  70.0021 229.5083 0002394 240.9174 119.1745 14.98323166 59292,6950.214,96.107,573.743,570.415,0.0
55767.0,STARLINK-5606,PAYLOAD,2024-03-24 12:34:35,14.98336244,0.0002754,70.0014,227.8254,253.8148,106.2708,4.829e-05,4.83e-06,0.0,0 STARLINK-5606,1 55767U 23028AC  24084.52402402  .00000483  00000-0  48290-4 0  9994,2 55767  70.0014 227.8254 0002754 253.8148 106.2708 14.98336244 59397,6950.174,96.107,573.953,570.125,0.0
55767.0,STARLINK-5606,PAYLOAD,2024-03-24 14:10:43,14.98335483,0.0002776,70.0014,227.6569,254.1836,105.9017,3.7506e-05,3.55e-06,0.0,0 STARLINK-5606,1 55767U 23028AC  24084.59078458  .00000355  00000-0  37506-4 0  9997,2 55767  70.0014 227.6569 0002776 254.1836 105.9017 14.98335483 59412,6950.176,96.107,573.97,570.112,0.0
55767.0,STARLINK-5606,PAYLOAD,2024-03-24 18:59:07,14.98336889,0.0002752,70.0015,227.1521,253.8662,106.2195,5.3602e-05,5.47e-06,0.0,0 STARLINK-5606,1 55767U 23028AC  24084.79106254  .00000547  00000-0  53602-4 0  9993,2 55767  70.0015 227.1521 0002752 253.8662 106.2195 14.98336889 59448,6950.172,96.107,573.949,570.124,0.0
55767.0,STARLINK-5606,PAYLOAD,2024-03-25 12:36:36,14.98326692,0.0002713,70.001,225.2975,262.3114,97.7737,7.3568e-05,7.85e-06,0.0,0 STARLINK-5606,1 55767U 23028AC  24085.52542708  .00000785  00000-0  73568-4 0  9990,2 55767  70.0010 225.2975 0002713 262.3114  97.7737 14.98326692 59547,6950.203,96.107,573.954,570.183,0.0
55767.0,STARLINK-5606,PAYLOAD,2024-03-25 19:01:09,14.98327681,0.0002683,70.0013,224.6251,257.0903,102.9957,6.4345e-05,6.75e-06,0.0,0 STARLINK-5606,1 55767U 23028AC  24085.79246700  .00000675  00000-0  64345-4 0  9993,2 55767  70.0013 224.6251 0002683 257.0903 102.9957 14.98327681 59590,6950.2,96.107,573.93,570.2,0.0
55767.0,STARLINK-5606,PAYLOAD,2024-03-26 12:38:39,14.98318271,0.0002798,69.9998,222.7733,268.4072,91.6766,-0.0002006,-2.485e-05,0.0,0 STARLINK-5606,1 55767U 23028AC  24086.52684351 -.00002485  00000-0 -20060-3 0  9991,2 55767  69.9998 222.7733 0002798 268.4072  91.6766 14.98318271 59691,6950.229,96.108,574.039,570.149,0.0
55767.0,STARLINK-5606,PAYLOAD,2024-03-26 14:14:47,14.98317041,0.0002967,70.0008,222.6067,262.5624,97.5198,-0.00020224,-2.504e-05,0.0,0 STARLINK-5606,1 55767U 23028AC  24086.59360433 -.00002504  00000-0 -20224-3 0  9994,2 55767  70.0008 222.6067 0002967 262.5624  97.5198 14.98317041 59712,6950.233,96.108,574.16,570.036,0.0
55767.0,STARLINK-5606,PAYLOAD,2024-03-26 19:03:11,14.98320695,0.0002999,70.0009,222.102,266.7593,93.3223,-0.00017043,-2.125e-05,0.0,0 STARLINK-5606,1 55767U 23028AC  24086.79388297 -.00002125  00000-0 -17043-3 0  9998,2 55767  70.0009 222.1020 0002999 266.7593  93.3223 14.98320695 59748,6950.222,96.108,574.171,570.002,0.0
55767.0,STARLINK-5606,PAYLOAD,2024-03-27 12:40:39,14.98329254,0.0003275,70.0005,220.2497,273.7218,86.3566,9.1936e-05,1.004e-05,0.0,0 STARLINK-5606,1 55767U 23028AC  24087.52823184  .00001004  00000-0  91936-4 0  9996,2 55767  70.0005 220.2497 0003275 273.7218  86.3566 14.98329254 59844,6950.195,96.107,574.336,569.784,0.0
55767.0,STARLINK-5606,PAYLOAD,2024-03-27 14:16:47,14.9832926,0.0003272,70.0008,220.0819,273.3919,86.6866,0.00011057,1.227e-05,0.0,0 STARLINK-5606,1 55767U 23028AC  24087.59499138  .00001227  00000-0  11057-3 0  9993,2 55767  70.0008 220.0819 0003272 273.3919  86.6866 14.98329260 59869,6950.195,96.107,574.334,569.786,0.0
55767.0,STARLINK-5606,PAYLOAD,2024-03-27 19:05:10,14.98340154,0.0003209,70.0008,219.5774,272.4859,87.5932,0.000148,1.674e-05,0.0,0 STARLINK-5606,1 55767U 23028AC  24087.79526270  .00001674  00000-0  14800-3 0  9998,2 55767  70.0008 219.5774 0003209 272.4859  87.5932 14.98340154 59886,6950.161,96.106,574.257,569.796,0.0
55767.0,STARLINK-5606,PAYLOAD,2024-03-28 01:29:43,14.98335128,0.0003115,70.0013,218.9041,273.2367,86.8436,2.7116e-05,2.31e-06,0.0,0 STARLINK-5606,1 55767U 23028AC  24088.06230818  .00000231  00000-0  27116-4 0  9992,2 55767  70.0013 218.9041 0003115 273.2367  86.8436 14.98335128 59922,6950.177,96.107,574.207,569.877,0.0
55767.0,STARLINK-5606,PAYLOAD,2024-03-28 12:42:40,14.98323795,0.0002874,70.0015,217.7265,269.5892,90.4937,0.00018389,2.101e-05,0.0,0 STARLINK-5606,1 55767U 23028AC  24088.52963295  .00002101  00000-0  18389-3 0  9994,2 55767  70.0015 217.7265 0002874 269.5892  90.4937 14.98323795 59992,6950.212,96.107,574.075,570.08,0.0
55767.0,STARLINK-5606,PAYLOAD,2024-03-29 12:44:41,14.98334605,0.0002901,70.0017,215.2022,266.8504,93.2324,-4.9614e-05,-6.85e-06,0.0,0 STARLINK-5606,1 55767U 23028AC  24089.53103134 -.00000685  00000-0 -49614-4 0  9997,2 55767  70.0017 215.2022 0002901 266.8504  93.2324 14.98334605 60141,6950.179,96.107,574.06,570.027,0.0
55767.0,STARLINK-5606,PAYLOAD,2024-03-29 14:20:49,14.98335751,0.0002893,70.0017,215.0337,266.8559,93.2269,-4.4753e-05,-6.27e-06,0.0,0 STARLINK-5606,1 55767U 23028AC  24089.59779024 -.00000627  00000-0 -44753-4 0  9995,2 55767  70.0017 215.0337 0002893 266.8559  93.2269 14.98335751 60161,6950.175,96.107,574.051,570.029,0.0
55767.0,STARLINK-5606,PAYLOAD,2024-03-30 12:46:42,14.98326383,0.0002797,70.0011,212.6764,265.5395,94.5444,-8.4791e-05,-1.104e-05,0.0,0 STARLINK-5606,1 55767U 23028AC  24090.53243439 -.00001104  00000-0 -84791-4 0  9994,2 55767  70.0011 212.6764 0002797 265.5395  94.5444 14.98326383 60293,6950.204,96.107,574.013,570.125,0.0
55767.0,STARLINK-5606,PAYLOAD,2024-03-30 14:22:50,14.98329159,0.000276,70.0008,212.507,262.0223,98.0623,-6.1575e-05,-8.28e-06,0.0,0 STARLINK-5606,1 55767U 23028AC  24090.59919173 -.00000828  00000-0 -61575-4 0  9992,2 55767  70.0008 212.5070 0002760 262.0223  98.0623 14.98329159 60315,6950.195,96.107,573.979,570.142,0.0
55767.0,STARLINK-5606,PAYLOAD,2024-03-30 17:35:06,14.98326787,0.0002763,70.0012,212.1709,259.5382,100.5465,-7.7677e-05,-1.02e-05,0.0,0 STARLINK-5606,1 55767U 23028AC  24090.73271371 -.00001020  00000-0 -77677-4 0  9994,2 55767  70.0012 212.1709 0002763 259.5382 100.5465 14.98326787 60334,6950.203,96.107,573.988,570.147,0.0
55767.0,STARLINK-5606,PAYLOAD,2024-03-31 12:48:42,14.98334064,0.0002921,70.0005,210.1506,262.0366,98.0461,3.0224e-05,2.68e-06,0.0,0 STARLINK-5606,1 55767U 23028AC  24091.53382460  .00000268  00000-0  30224-4 0  9993,2 55767  70.0005 210.1506 0002921 262.0366  98.0461 14.98334064 60442,6950.18,96.107,574.075,570.015,0.0
55767.0,STARLINK-5606,PAYLOAD,2024-03-31 14:24:50,14.98336899,0.0003135,70.0006,209.9827,267.0339,93.0461,5.7895e-05,5.98e-06,0.0,0 STARLINK-5606,1 55767U 23028AC  24091.60058182  .00000598  00000-0  57895-4 0  9991,2 55767  70.0006 209.9827 0003135 267.0339  93.0461 14.98336899 60463,6950.172,96.107,574.215,569.858,0.0
55767.0,STARLINK-5606,PAYLOAD,2024-03-31 17:37:06,14.98339962,0.0003093,70.0008,209.6468,267.2566,92.8239,9.4865e-05,1.039e-05,0.0,0 STARLINK-5606,1 55767U 23028AC  24091.73409827  .00001039  00000-0  94865-4 0  9990,2 55767  70.0008 209.6468 0003093 267.2566  92.8239 14.98339962 60486,6950.162,96.106,574.177,569.877,0.0
55767.0,STARLINK-5606,PAYLOAD,2024-04-01 01:37:47,14.98320053,0.0002904,70.0034,208.805,268.5485,91.5341,4.6307e-05,4.59e-06,0.0,0 STARLINK-5606,1 55767U 23028AC  24092.06791117  .00000459  00000-0  46307-4 0  9996,2 55767  70.0034 208.8050 0002904 268.5485  91.5341 14.98320053 60523,6950.224,96.108,574.107,570.07,0.0
55767.0,STARLINK-5606,PAYLOAD,2024-04-01 14:26:52,14.98323375,0.0002816,70.0011,207.459,268.1987,91.8849,-2.3477e-05,-3.73e-06,0.0,0 STARLINK-5606,1 55767U 23028AC  24092.60199434 -.00000373  00000-0 -23477-4 0  9990,2 55767  70.0011 207.4590 0002816 268.1987  91.8849 14.98323375 60613,6950.213,96.107,574.036,570.121,0.0
55767.0,STARLINK-5606,PAYLOAD,2024-04-02 11:16:36,14.98334271,0.0002929,70.0015,205.2714,270.0386,90.0437,1.0152e-05,2.8e-07,0.0,0 STARLINK-5606,1 55767U 23028AC  24093.46986724  .00000028  00000-0  10152-4 0  9992,2 55767  70.0015 205.2714 0002929 270.0386  90.0437 14.98334271 60735,6950.18,96.107,574.08,570.009,0.0
55767.0,STARLINK-5606,PAYLOAD,2024-04-02 14:28:52,14.98342884,0.0002351,70.0014,204.9352,256.2916,103.7981,-8.0409e-05,-1.052e-05,0.0,0 STARLINK-5606,1 55767U 23028AC  24093.60338383 -.00001052  00000-0 -80409-4 0  9992,2 55767  70.0014 204.9352 0002351 256.2916 103.7981 14.98342884 60760,6950.153,96.106,573.652,570.384,0.0
55767.0,STARLINK-5606,PAYLOAD,2024-04-02 17:41:08,14.98340137,0.000297,70.0014,204.5985,269.7781,90.3038,1.7441e-05,1.15e-06,0.0,0 STARLINK-5606,1 55767U 23028AC  24093.73690218  .00000115  00000-0  17441-4 0  9997,2 55767  70.0014 204.5985 0002970 269.7781  90.3038 14.98340137 60789,6950.162,96.106,574.091,569.962,0.0
55767.0,STARLINK-5606,PAYLOAD,2024-04-03 11:18:37,14.98327145,0.0002803,70.0016,202.7471,270.3467,89.7371,7.4367e-05,7.94e-06,0.0,0 STARLINK-5606,1 55767U 23028AC  24094.47126823  .00000794  00000-0  74367-4 0  9998,2 55767  70.0016 202.7471 0002803 270.3467  89.7371 14.98327145 60882,6950.202,96.107,574.015,570.119,0.0
55767.0,STARLINK-5606,PAYLOAD,2024-04-03 17:43:09,14.9832907,0.0002785,70.0017,202.0742,269.2292,90.8548,7.4045e-05,7.91e-06,0.0,0 STARLINK-5606,1 55767U 23028AC  24094.73830709  .00000791  00000-0  74045-4 0  9992,2 55767  70.0017 202.0742 0002785 269.2292  90.8548 14.98329070 60933,6950.196,96.107,573.996,570.125,0.0
55767.0,STARLINK-5606,PAYLOAD,2024-04-04 12:56:46,14.98328057,0.0002697,70.0009,200.0523,259.741,100.3445,-6.8542e-05,-9.11e-06,0.0,0 STARLINK-5606,1 55767U 23028AC  24095.53943131 -.00000911  00000-0 -68542-4 0  9996,2 55767  70.0009 200.0523 0002697 259.7410 100.3445 14.98328057 61047,6950.199,96.107,573.938,570.189,0.0
